[
    {
        "Altitude(m)": 558927.9357286184,
        "Argument of Periapsis(deg)": 0.013245982221427002,
        "Eccentricity": 0.0,
        "Inclination(deg)": 53.0,
        "Latitude(deg)": -20.103812599751663,
        "Longitude(deg)": 52.502443370178675,
        "Mean Anomaly(deg)": -25.271314264844776,
        "RAAN(deg)": 169.98028673705605,
        "Satellite Name": "Starlink Shell 1 767",
        "Satellite Number": 767,
        "Semi-Major Axis(m)": 6931778.249405717,
        "Time(s)": 380
    },
    {
        "Altitude(m)": 558770.9037716346,
        "Argument of Periapsis(deg)": 0.013594560700938237,
        "Eccentricity": 0.0,
        "Inclination(deg)": 53.0,
        "Latitude(deg)": -19.619760988811635,
        "Longitude(deg)": 52.886161178187734,
        "Mean Anomaly(deg)": -24.644483061288128,
        "RAAN(deg)": 169.97976796697856,
        "Satellite Name": "Starlink Shell 1 767",
        "Satellite Number": 767,
        "Semi-Major Axis(m)": 6931778.249405717,
        "Time(s)": 390
    },
    {
        "Altitude(m)": 558615.3795750801,
        "Argument of Periapsis(deg)": 0.013943139180449475,
        "Eccentricity": 0.0,
        "Inclination(deg)": 53.0,
        "Latitude(deg)": -19.1346720027888,
        "Longitude(deg)": 53.26735389325409,
        "Mean Anomaly(deg)": -24.01765185773136,
        "RAAN(deg)": 169.9792491969011,
        "Satellite Name": "Starlink Shell 1 767",
        "Satellite Number": 767,
        "Semi-Major Axis(m)": 6931778.249405717,
        "Time(s)": 400
    },
    {
        "Altitude(m)": 558461.4166099835,
        "Argument of Periapsis(deg)": 0.014291717659960712,
        "Eccentricity": 0.0,
        "Inclination(deg)": 53.0,
        "Latitude(deg)": -18.64857830890026,
        "Longitude(deg)": 53.64609885674443,
        "Mean Anomaly(deg)": -23.39082065417461,
        "RAAN(deg)": 169.9787304268236,
        "Satellite Name": "Starlink Shell 1 767",
        "Satellite Number": 767,
        "Semi-Major Axis(m)": 6931778.249405717,
        "Time(s)": 410
    },
    {
        "Altitude(m)": 558309.0675025566,
        "Argument of Periapsis(deg)": 0.014640296139471948,
        "Eccentricity": 0.0,
        "Inclination(deg)": 53.0,
        "Latitude(deg)": -18.16151202193801,
        "Longitude(deg)": 54.02247191303563,
        "Mean Anomaly(deg)": -22.763989450617938,
        "RAAN(deg)": 169.97821165674617,
        "Satellite Name": "Starlink Shell 1 767",
        "Satellite Number": 767,
        "Semi-Major Axis(m)": 6931778.249405717,
        "Time(s)": 420
    },
    {
        "Altitude(m)": 558158.384010799,
        "Argument of Periapsis(deg)": 0.014988874618983185,
        "Eccentricity": 0.0,
        "Inclination(deg)": 53.0,
        "Latitude(deg)": -17.673504724248637,
        "Longitude(deg)": 54.39654793908549,
        "Mean Anomaly(deg)": -22.13715824706117,
        "RAAN(deg)": 169.97769288666868,
        "Satellite Name": "Starlink Shell 1 767",
        "Satellite Number": 767,
        "Semi-Major Axis(m)": 6931778.249405717,
        "Time(s)": 430
    },
    {
        "Altitude(m)": 558009.417001594,
        "Argument of Periapsis(deg)": 0.015337453098494424,
        "Eccentricity": 0.0,
        "Inclination(deg)": 53.0,
        "Latitude(deg)": -17.18458748527456,
        "Longitude(deg)": 54.76840137432032,
        "Mean Anomaly(deg)": -21.510327043504525,
        "RAAN(deg)": 169.97717411659121,
        "Satellite Name": "Starlink Shell 1 767",
        "Satellite Number": 767,
        "Semi-Major Axis(m)": 6931778.249405717,
        "Time(s)": 440
    },
    {
        "Altitude(m)": 557862.2164281756,
        "Argument of Periapsis(deg)": 0.01568603157800566,
        "Eccentricity": 0.0,
        "Inclination(deg)": 53.0,
        "Latitude(deg)": -16.69479088066782,
        "Longitude(deg)": 55.13810523791928,
        "Mean Anomaly(deg)": -20.883495839947777,
        "RAAN(deg)": 169.97665534651372,
        "Satellite Name": "Starlink Shell 1 767",
        "Satellite Number": 767,
        "Semi-Major Axis(m)": 6931778.249405717,
        "Time(s)": 450
    },
    {
        "Altitude(m)": 557716.8313080904,
        "Argument of Periapsis(deg)": 0.0160346100575169,
        "Eccentricity": 0.0,
        "Inclination(deg)": 53.0,
        "Latitude(deg)": -16.20414501098683,
        "Longitude(deg)": 55.50573165919272,
        "Mean Anomaly(deg)": -20.256664636391104,
        "RAAN(deg)": 169.97613657643626,
        "Satellite Name": "Starlink Shell 1 767",
        "Satellite Number": 767,
        "Semi-Major Axis(m)": 6931778.249405717,
        "Time(s)": 460
    },
    {
        "Altitude(m)": 557573.3097015686,
        "Argument of Periapsis(deg)": 0.016383188537028134,
        "Eccentricity": 0.0,
        "Inclination(deg)": 53.0,
        "Latitude(deg)": -15.71267951998637,
        "Longitude(deg)": 55.87135240814367,
        "Mean Anomaly(deg)": -19.629833432834335,
        "RAAN(deg)": 169.97561780635877,
        "Satellite Name": "Starlink Shell 1 767",
        "Satellite Number": 767,
        "Semi-Major Axis(m)": 6931778.249405717,
        "Time(s)": 470
    },
    {
        "Altitude(m)": 557431.6986904067,
        "Argument of Periapsis(deg)": 0.01673176701653937,
        "Eccentricity": 0.0,
        "Inclination(deg)": 53.0,
        "Latitude(deg)": -15.22042361251721,
        "Longitude(deg)": 56.23503791330017,
        "Mean Anomaly(deg)": -19.003002229277588,
        "RAAN(deg)": 169.97509903628134,
        "Satellite Name": "Starlink Shell 1 767",
        "Satellite Number": 767,
        "Semi-Major Axis(m)": 6931778.249405717,
        "Time(s)": 480
    },
    {
        "Altitude(m)": 557292.0443572808,
        "Argument of Periapsis(deg)": 0.017080345496050607,
        "Eccentricity": 0.0,
        "Inclination(deg)": 53.0,
        "Latitude(deg)": -14.727406072041681,
        "Longitude(deg)": 56.59685779253311,
        "Mean Anomaly(deg)": -18.376171025720918,
        "RAAN(deg)": 169.97458026620384,
        "Satellite Name": "Starlink Shell 1 767",
        "Satellite Number": 767,
        "Semi-Major Axis(m)": 6931778.249405717,
        "Time(s)": 490
    },
    {
        "Altitude(m)": 557154.3917655825,
        "Argument of Periapsis(deg)": 0.017428923975561842,
        "Eccentricity": 0.0,
        "Inclination(deg)": 53.0,
        "Latitude(deg)": -14.233655277779793,
        "Longitude(deg)": 56.95688138395523,
        "Mean Anomaly(deg)": -17.74933982216417,
        "RAAN(deg)": 169.97406149612638,
        "Satellite Name": "Starlink Shell 1 767",
        "Satellite Number": 767,
        "Semi-Major Axis(m)": 6931778.249405717,
        "Time(s)": 500
    },
    {
        "Altitude(m)": 557018.7849397438,
        "Argument of Periapsis(deg)": 0.01777750245507308,
        "Eccentricity": 0.0,
        "Inclination(deg)": 53.0,
        "Latitude(deg)": -13.739199221500435,
        "Longitude(deg)": 57.31517676400267,
        "Mean Anomaly(deg)": -17.12250861860753,
        "RAAN(deg)": 169.9735427260489,
        "Satellite Name": "Starlink Shell 1 767",
        "Satellite Number": 767,
        "Semi-Major Axis(m)": 6931778.249405717,
        "Time(s)": 510
    },
    {
        "Altitude(m)": 556885.2668460517,
        "Argument of Periapsis(deg)": 0.018126080934584315,
        "Eccentricity": 0.0,
        "Inclination(deg)": 53.0,
        "Latitude(deg)": -13.244065523964968,
        "Longitude(deg)": 57.6718112784213,
        "Mean Anomaly(deg)": -16.49567741505073,
        "RAAN(deg)": 169.9730239559714,
        "Satellite Name": "Starlink Shell 1 767",
        "Satellite Number": 767,
        "Semi-Major Axis(m)": 6931778.249405717,
        "Time(s)": 520
    },
    {
        "Altitude(m)": 556753.8793740353,
        "Argument of Periapsis(deg)": 0.018474659414095554,
        "Eccentricity": 0.0,
        "Inclination(deg)": 53.0,
        "Latitude(deg)": -12.748281451039203,
        "Longitude(deg)": 58.02685207326301,
        "Mean Anomaly(deg)": -15.868846211494084,
        "RAAN(deg)": 169.97250518589394,
        "Satellite Name": "Starlink Shell 1 767",
        "Satellite Number": 767,
        "Semi-Major Axis(m)": 6931778.249405717,
        "Time(s)": 530
    },
    {
        "Altitude(m)": 556624.6633183036,
        "Argument of Periapsis(deg)": 0.018823237893606792,
        "Eccentricity": 0.0,
        "Inclination(deg)": 53.0,
        "Latitude(deg)": -12.251873929485555,
        "Longitude(deg)": 58.38036511300288,
        "Mean Anomaly(deg)": -15.242015007937338,
        "RAAN(deg)": 169.9719864158165,
        "Satellite Name": "Starlink Shell 1 767",
        "Satellite Number": 767,
        "Semi-Major Axis(m)": 6931778.249405717,
        "Time(s)": 540
    },
    {
        "Altitude(m)": 556497.658360992,
        "Argument of Periapsis(deg)": 0.019171816373118027,
        "Eccentricity": 0.0,
        "Inclination(deg)": 53.0,
        "Latitude(deg)": -11.754869562446775,
        "Longitude(deg)": 58.73241571150478,
        "Mean Anomaly(deg)": -14.615183804380566,
        "RAAN(deg)": 169.971467645739,
        "Satellite Name": "Starlink Shell 1 767",
        "Satellite Number": 767,
        "Semi-Major Axis(m)": 6931778.249405717,
        "Time(s)": 550
    },
    {
        "Altitude(m)": 556372.9030547359,
        "Argument of Periapsis(deg)": 0.019520394852629266,
        "Eccentricity": 0.0,
        "Inclination(deg)": 53.0,
        "Latitude(deg)": -11.257294644633346,
        "Longitude(deg)": 59.08306906295059,
        "Mean Anomaly(deg)": -13.988352600823923,
        "RAAN(deg)": 169.97094887566152,
        "Satellite Name": "Starlink Shell 1 767",
        "Satellite Number": 767,
        "Semi-Major Axis(m)": 6931778.249405717,
        "Time(s)": 560
    }
]